[{"OBJECT_NAME":"STARLINK-2479","OBJECT_ID":"2021-027AW","EPOCH":"2026-03-09T13:41:16.573344","MEAN_MOTION":15.30207688,"ECCENTRICITY":0.000133,"INCLINATION":53.16,"RA_OF_ASC_NODE":166.0339,"ARG_OF_PERICENTER":102.6554,"MEAN_ANOMALY":257.4596,"EPHEMERIS_TYPE":0,"CLASSIFICATION_TYPE":"U","NORAD_CAT_ID":48136,"ELEMENT_SET_NO":999,"REV_AT_EPOCH":27249,"BSTAR":0.00017793,"MEAN_MOTION_DOT":4.915e-5,"MEAN_MOTION_DDOT":0},{"OBJECT_NAME":"KSLV-II R\/B","OBJECT_ID":"2023-072H","EPOCH":"2026-03-09T20:13:26.441760","MEAN_MOTION":15.33109439,"ECCENTRICITY":0.00241884,"INCLINATION":97.4991,"RA_OF_ASC_NODE":274.152,"ARG_OF_PERICENTER":318.2938,"MEAN_ANOMALY":41.646,"EPHEMERIS_TYPE":0,"CLASSIFICATION_TYPE":"U","NORAD_CAT_ID":56750,"ELEMENT_SET_NO":999,"REV_AT_EPOCH":15516,"BSTAR":0.00028309532,"MEAN_MOTION_DOT":9.057e-5,"MEAN_MOTION_DDOT":0}]
